#aV2019  3 15  0  0  0.00000000     288 DD+AD WGS84 FIT  NGA
## 2044 432000.00000000   300.00000000 58557 0.0000000000000
+   31     1  2  3  5  6  7  8  9 10 11 12 13 14 15 16 17 18
+         19 20 21 22 23 24 25 26 27 28 29 30 31 32  0  0  0
+          0  0  0  0  0  0  0  0  0  0  0  0  0  0  0  0  0
+          0  0  0  0  0  0  0  0  0  0  0  0  0  0  0  0  0
+          0  0  0  0  0  0  0  0  0  0  0  0  0  0  0  0  0
++         2  2  2  2  2  2  2  2  2  2  2  2  2  2  2  2  2
++         2  2  2  2  2  2  2  2  2  2  2  2  2  2  0  0  0
++         0  0  0  0  0  0  0  0  0  0  0  0  0  0  0  0  0
++         0  0  0  0  0  0  0  0  0  0  0  0  0  0  0  0  0
++         0  0  0  0  0  0  0  0  0  0  0  0  0  0  0  0  0
%c cc cc ccc ccc cccc cccc cccc cccc ccccc ccccc ccccc ccccc
%c cc cc ccc ccc cccc cccc cccc cccc ccccc ccccc ccccc ccccc
%f  0.0000000  0.000000000  0.00000000000  0.000000000000000
%f  0.0000000  0.000000000  0.00000000000  0.000000000000000
%i    0    0    0    0      0      0      0      0         0
%i    0    0    0    0      0      0      0      0         0
/*      NGA, ST. LOUIS,MO.                                  
/*   EPHEMERIS COMPUTED FROM 2 DAYS OF DATA                 
/*   EPOCHA v3 SMOOTHER                                     
/*   G1762 IERS2010 SATAF SATAPC                            
*  2019  3 15  6  0  0.00000000
P  1   7756.218064  13786.967376 -21555.990545   -181.078487                    
V  1 -26623.702297   3649.457145  -6994.460653     -0.075303                    
P  2  15757.216049 -14644.404509  16071.172154   -163.844847                    
V  2  19430.741437  -1687.044376 -21573.703341     -0.096402                    
P  3  11695.148391  22966.401884  -6617.064285    186.425242                    
V  3  -7091.686168  -5080.462895 -30250.997598      0.010567                    
P  5   4995.071673 -16593.352357  19954.724336      1.179662                    
V  5  17109.687681  19215.455687  11827.805866      0.000230                    
P  6  24693.902721  -7572.139506   6304.473656    254.837104                    
V  6   8153.779344   1211.596938 -30681.363658     -0.088011                    
P  7  21175.743959   7938.366177  14541.091947     14.672756                    
V  7 -17548.496999   3841.972089  23405.783629     -0.073261                    
P  8  -4803.019079  25017.476082  -7099.513724   -136.206504                    
V  8  -5761.943040   7505.806794  30358.403168     -0.014202                    
P  9  12052.442896  10432.073706  21199.457408    444.987530                    
V  9 -10638.725000  24879.613935  -6192.424719     -0.058071                    
P 10 -19089.681776  -4328.560910 -17983.561891     96.912397                    
V 10 -12752.134057 -19046.789154  17872.393451     -0.085702                    
P 11   2649.797659  17317.606347 -20543.425163   -644.786158                    
V 11 -21660.636938  12698.037340   7882.238540      0.065977                    
P 12  -9207.664596 -23721.972543  -8142.195295    260.027664                    
V 12   6973.149997   7349.259217 -29894.328971     -0.032711                    
P 13  12614.501944 -23338.266574   -848.027637    -71.658752                    
V 13   2736.354388    477.836119  31920.566503      0.013999                    
P 14 -17656.875478  14626.987637 -12937.970208    -88.295594                    
V 14   5550.272875 -16264.136010 -25535.963050      0.014050                    
P 15    758.225680 -24874.347456  -8961.067927   -323.472913                    
V 15   6917.420613  -9573.696639  28356.931242      0.018570                    
P 16  -4607.661962  16997.195194  19558.651746    -25.493110                    
V 16 -14590.968226 -20712.438676  14852.065646     -0.026290                    
P 17  16982.193495  -6088.174245 -19053.929011     23.634939                    
V 17  -9794.740743  23075.500785 -15854.732192      0.057140                    
P 18  -3248.787879  16022.423718 -21395.021828     34.949018                    
V 18 -25821.338387   3896.186347   7136.874993      0.035390                    
P 19  18100.218412 -13868.250841 -13994.625881   -342.145826                    
V 19  -6825.718023  15857.268395 -24977.874980      0.042826                    
P 20 -21778.597252 -11479.611611 -10256.805189    523.106041                    
V 20  -6683.902391 -11462.459002  27164.831215      0.003619                    
P 21 -23367.867060  -4694.440461  12390.503669   -232.236321                    
V 21  13845.352339  -5193.249612  25971.136608      0.073984                    
P 22   6367.727729  22110.803514 -13077.989290   -664.479355                    
V 22 -13571.842589 -10778.219614 -24329.170464     -0.075582                    
P 23   5016.900709  20134.251487  16663.497921   -193.978881                    
V 23  -9790.321797  18469.078427 -20156.207698      0.013824                    
P 24  -3616.105015 -15359.106153 -21525.432076    -63.405601                    
V 24  26631.827335  -4732.172117   -778.944314     -0.005758                    
P 25 -17426.105848 -20033.110173   2629.049634   -733.237900                    
V 25   -339.139001  -4209.481855 -31582.263969     -0.049573                    
P 26 -12743.217238   8684.094979  21612.293902    149.555448                    
V 26 -17154.082623 -21504.533444  -1298.753262      0.101047                    
P 27 -11905.285700  23345.899288   3078.629834    -86.469351                    
V 27   -752.052232  -4695.830754  32025.570027     -0.079660                    
P 28  18176.910419   7205.680751 -17323.720910    766.314714                    
V 28  11080.582825  20436.882757  19540.954398      0.004760                    
P 29  -7242.598901 -15589.444391  20222.096530    249.057414                    
V 29  12118.353571 -22642.492560 -13093.517555     -0.088117                    
P 30  26333.696216    777.908720   4081.551281    -68.708184                    
V 30  -4865.768015   3640.879163  30631.334337     -0.066239                    
P 31 -24587.840951   7644.895705   7397.258167     52.079861                    
V 31  -9463.347373  -1381.226874 -29596.019424     -0.026421                    
P 32 -17317.292675   9377.808521 -17723.962228   -180.513937                    
V 32   6927.853068 -21637.001778 -18278.174900      0.185483                    
EOF
